ONEWEB-0383             
1 49309U 21090AG  26064.20684563  .00000348  00000+0  90459-3 0  9993
2 49309  87.8996 310.4392 0001416  82.0919 278.0371 13.14501563213932
ONEWEB-0384             
1 49310U 21090AH  26064.12307299  .00000146  00000+0  32587-3 0  9998
2 49310  87.9187 295.2555 0001099  76.4862 283.6394 13.20806992216097
ONEWEB-0385             
1 49311U 21090AJ  26064.19948951  .00000072  00000+0  14478-3 0  9999
2 49311  87.9180 295.2019 0001441  77.6761 282.4534 13.20771804216072
ONEWEB-0386             
1 49312U 21090AK  26064.14107946  .00000111  00000+0  24162-3 0  9991
2 49312  87.9184 295.1984 0001355  80.6731 279.4556 13.20770508216083
ONEWEB-0387             
1 49313U 21090AL  26064.20105258  .00000077  00000+0  15789-3 0  9999
2 49313  87.9172 295.2241 0001652  71.7896 288.3417 13.20773134216095
ONEWEB-0388             
1 49314U 21090AM  26064.23555424  .00000012  00000+0 -22405-5 0  9992
2 49314  87.9234 325.6801 0001549  77.0100 283.1206 13.19727097212705
ONEWEB-0389             
1 50469U 21132A   26064.16617629  .00000029  00000+0  41143-4 0  9996
2 50469  87.9142  26.5253 0001775  69.4889 290.6432 13.17648477204385
ONEWEB-0390             
1 50470U 21132B   26063.33253876  .00000123  00000+0  28336-3 0  9999
2 50470  87.9140  26.6914 0002128  81.8635 278.2738 13.17651452204276
ONEWEB-0391             
1 50471U 21132C   26064.16955324  .00000050  00000+0  95693-4 0  9999
2 50471  87.9142  26.5342 0002156  57.7882 302.3458 13.17648942204380
ONEWEB-0392             
1 50472U 21132D   26063.82024389 -.00000009  00000+0 -55737-4 0  9991
2 50472  87.9154  26.5633 0001843  69.0050 291.1279 13.17648600204378
ONEWEB-0393             
1 50473U 21132E   26064.24898873 -.00000012  00000+0 -65071-4 0  9992
2 50473  87.9157  26.5011 0001784  77.3883 282.7448 13.17649907204423
ONEWEB-0394             
1 50474U 21132F   26064.22292979  .00000095  00000+0  20821-3 0  9998
2 50474  87.9248 356.0864 0001739  72.0706 288.0616 13.18685891207891
ONEWEB-0395             
1 50475U 21132G   26064.17453978 -.00000083  00000+0 -27128-3 0  9997
2 50475  87.8851  41.7539 0002045  81.2173 278.9186 13.11415552202083
ONEWEB-0396             
1 50476U 21132H   26064.21633237  .00000009  00000+0 -92550-5 0  9991
2 50476  87.9251 356.0990 0001733  75.2669 284.8655 13.18685718207934
ONEWEB-0397             
1 50477U 21132J   26064.23117575  .00000163  00000+0  38153-3 0  9993
2 50477  87.9251 356.0960 0001624  75.9403 284.1910 13.18685643207916
ONEWEB-0398             
1 50478U 21132K   26064.21863720  .00000331  00000+0  89831-3 0  9998
2 50478  87.8860  41.7255 0002240  81.9817 278.1565 13.11417488201981
ONEWEB-0399             
1 50479U 21132L   26063.89987737 -.00000213  00000+0 -63656-3 0  9995
2 50479  87.8861  41.7984 0001538  69.3340 290.7953 13.11417750201930
