[{"OBJECT_NAME":"ONEWEB-0383","OBJECT_ID":"2021-090AG","EPOCH":"2026-03-05T04:57:51.462432","MEAN_MOTION":13.14501563,"ECCENTRICITY":0.00014162,"INCLINATION":87.8996,"RA_OF_ASC_NODE":310.4392,"ARG_OF_PERICENTER":82.0919,"MEAN_ANOMALY":278.0371,"EPHEMERIS_TYPE":0,"CLASSIFICATION_TYPE":"U","NORAD_CAT_ID":49309,"ELEMENT_SET_NO":999,"REV_AT_EPOCH":21393,"BSTAR":0.00090459077,"MEAN_MOTION_DOT":3.48e-6,"MEAN_MOTION_DDOT":0},{"OBJECT_NAME":"ONEWEB-0384","OBJECT_ID":"2021-090AH","EPOCH":"2026-03-05T02:57:13.506336","MEAN_MOTION":13.20806992,"ECCENTRICITY":0.00010993,"INCLINATION":87.9187,"RA_OF_ASC_NODE":295.2555,"ARG_OF_PERICENTER":76.4862,"MEAN_ANOMALY":283.6394,"EPHEMERIS_TYPE":0,"CLASSIFICATION_TYPE":"U","NORAD_CAT_ID":49310,"ELEMENT_SET_NO":999,"REV_AT_EPOCH":21609,"BSTAR":0.00032586543,"MEAN_MOTION_DOT":1.46e-6,"MEAN_MOTION_DDOT":0},{"OBJECT_NAME":"ONEWEB-0385","OBJECT_ID":"2021-090AJ","EPOCH":"2026-03-05T04:47:15.893664","MEAN_MOTION":13.20771804,"ECCENTRICITY":0.00014411,"INCLINATION":87.918,"RA_OF_ASC_NODE":295.2019,"ARG_OF_PERICENTER":77.6761,"MEAN_ANOMALY":282.4534,"EPHEMERIS_TYPE":0,"CLASSIFICATION_TYPE":"U","NORAD_CAT_ID":49311,"ELEMENT_SET_NO":999,"REV_AT_EPOCH":21607,"BSTAR":0.0001447819,"MEAN_MOTION_DOT":7.2e-7,"MEAN_MOTION_DDOT":0},{"OBJECT_NAME":"ONEWEB-0386","OBJECT_ID":"2021-090AK","EPOCH":"2026-03-05T03:23:09.265344","MEAN_MOTION":13.20770508,"ECCENTRICITY":0.00013557,"INCLINATION":87.9184,"RA_OF_ASC_NODE":295.1984,"ARG_OF_PERICENTER":80.6731,"MEAN_ANOMALY":279.4556,"EPHEMERIS_TYPE":0,"CLASSIFICATION_TYPE":"U","NORAD_CAT_ID":49312,"ELEMENT_SET_NO":999,"REV_AT_EPOCH":21608,"BSTAR":0.00024162194,"MEAN_MOTION_DOT":1.11e-6,"MEAN_MOTION_DDOT":0},{"OBJECT_NAME":"ONEWEB-0387","OBJECT_ID":"2021-090AL","EPOCH":"2026-03-05T04:49:30.942912","MEAN_MOTION":13.20773134,"ECCENTRICITY":0.00016529,"INCLINATION":87.9172,"RA_OF_ASC_NODE":295.2241,"ARG_OF_PERICENTER":71.7896,"MEAN_ANOMALY":288.3417,"EPHEMERIS_TYPE":0,"CLASSIFICATION_TYPE":"U","NORAD_CAT_ID":49313,"ELEMENT_SET_NO":999,"REV_AT_EPOCH":21609,"BSTAR":0.00015788725,"MEAN_MOTION_DOT":7.7e-7,"MEAN_MOTION_DDOT":0},{"OBJECT_NAME":"ONEWEB-0388","OBJECT_ID":"2021-090AM","EPOCH":"2026-03-05T05:39:11.886336","MEAN_MOTION":13.19727097,"ECCENTRICITY":0.00015497,"INCLINATION":87.9234,"RA_OF_ASC_NODE":325.6801,"ARG_OF_PERICENTER":77.01,"MEAN_ANOMALY":283.1206,"EPHEMERIS_TYPE":0,"CLASSIFICATION_TYPE":"U","NORAD_CAT_ID":49314,"ELEMENT_SET_NO":999,"REV_AT_EPOCH":21270,"BSTAR":-2.240517e-6,"MEAN_MOTION_DOT":1.2e-7,"MEAN_MOTION_DDOT":0},{"OBJECT_NAME":"ONEWEB-0389","OBJECT_ID":"2021-132A","EPOCH":"2026-03-05T03:59:17.631456","MEAN_MOTION":13.17648477,"ECCENTRICITY":0.0001775,"INCLINATION":87.9142,"RA_OF_ASC_NODE":26.5253,"ARG_OF_PERICENTER":69.4889,"MEAN_ANOMALY":290.6432,"EPHEMERIS_TYPE":0,"CLASSIFICATION_TYPE":"U","NORAD_CAT_ID":50469,"ELEMENT_SET_NO":999,"REV_AT_EPOCH":20438,"BSTAR":4.1142614e-5,"MEAN_MOTION_DOT":2.9e-7,"MEAN_MOTION_DDOT":0},{"OBJECT_NAME":"ONEWEB-0390","OBJECT_ID":"2021-132B","EPOCH":"2026-03-04T07:58:51.348864","MEAN_MOTION":13.17651452,"ECCENTRICITY":0.00021286,"INCLINATION":87.914,"RA_OF_ASC_NODE":26.6914,"ARG_OF_PERICENTER":81.8635,"MEAN_ANOMALY":278.2738,"EPHEMERIS_TYPE":0,"CLASSIFICATION_TYPE":"U","NORAD_CAT_ID":50470,"ELEMENT_SET_NO":999,"REV_AT_EPOCH":20427,"BSTAR":0.0002833574,"MEAN_MOTION_DOT":1.23e-6,"MEAN_MOTION_DDOT":0},{"OBJECT_NAME":"ONEWEB-0391","OBJECT_ID":"2021-132C","EPOCH":"2026-03-05T04:04:09.399936","MEAN_MOTION":13.17648942,"ECCENTRICITY":0.00021564,"INCLINATION":87.9142,"RA_OF_ASC_NODE":26.5342,"ARG_OF_PERICENTER":57.7882,"MEAN_ANOMALY":302.3458,"EPHEMERIS_TYPE":0,"CLASSIFICATION_TYPE":"U","NORAD_CAT_ID":50471,"ELEMENT_SET_NO":999,"REV_AT_EPOCH":20438,"BSTAR":9.5693303e-5,"MEAN_MOTION_DOT":5.0e-7,"MEAN_MOTION_DDOT":0},{"OBJECT_NAME":"ONEWEB-0392","OBJECT_ID":"2021-132D","EPOCH":"2026-03-04T19:41:09.072096","MEAN_MOTION":13.176486,"ECCENTRICITY":0.00018433,"INCLINATION":87.9154,"RA_OF_ASC_NODE":26.5633,"ARG_OF_PERICENTER":69.005,"MEAN_ANOMALY":291.1279,"EPHEMERIS_TYPE":0,"CLASSIFICATION_TYPE":"U","NORAD_CAT_ID":50472,"ELEMENT_SET_NO":999,"REV_AT_EPOCH":20437,"BSTAR":-5.5736532e-5,"MEAN_MOTION_DOT":-9.0e-8,"MEAN_MOTION_DDOT":0},{"OBJECT_NAME":"ONEWEB-0393","OBJECT_ID":"2021-132E","EPOCH":"2026-03-05T05:58:32.626272","MEAN_MOTION":13.17649907,"ECCENTRICITY":0.00017849,"INCLINATION":87.9157,"RA_OF_ASC_NODE":26.5011,"ARG_OF_PERICENTER":77.3883,"MEAN_ANOMALY":282.7448,"EPHEMERIS_TYPE":0,"CLASSIFICATION_TYPE":"U","NORAD_CAT_ID":50473,"ELEMENT_SET_NO":999,"REV_AT_EPOCH":20442,"BSTAR":-6.5070821e-5,"MEAN_MOTION_DOT":-1.2e-7,"MEAN_MOTION_DDOT":0},{"OBJECT_NAME":"ONEWEB-0394","OBJECT_ID":"2021-132F","EPOCH":"2026-03-05T05:21:01.133856","MEAN_MOTION":13.18685891,"ECCENTRICITY":0.00017393,"INCLINATION":87.9248,"RA_OF_ASC_NODE":356.0864,"ARG_OF_PERICENTER":72.0706,"MEAN_ANOMALY":288.0616,"EPHEMERIS_TYPE":0,"CLASSIFICATION_TYPE":"U","NORAD_CAT_ID":50474,"ELEMENT_SET_NO":999,"REV_AT_EPOCH":20789,"BSTAR":0.0002082113,"MEAN_MOTION_DOT":9.5e-7,"MEAN_MOTION_DDOT":0},{"OBJECT_NAME":"ONEWEB-0395","OBJECT_ID":"2021-132G","EPOCH":"2026-03-05T04:11:20.236992","MEAN_MOTION":13.11415552,"ECCENTRICITY":0.00020455,"INCLINATION":87.8851,"RA_OF_ASC_NODE":41.7539,"ARG_OF_PERICENTER":81.2173,"MEAN_ANOMALY":278.9186,"EPHEMERIS_TYPE":0,"CLASSIFICATION_TYPE":"U","NORAD_CAT_ID":50475,"ELEMENT_SET_NO":999,"REV_AT_EPOCH":20208,"BSTAR":-0.00027128314,"MEAN_MOTION_DOT":-8.3e-7,"MEAN_MOTION_DDOT":0},{"OBJECT_NAME":"ONEWEB-0396","OBJECT_ID":"2021-132H","EPOCH":"2026-03-05T05:11:31.116768","MEAN_MOTION":13.18685718,"ECCENTRICITY":0.00017339,"INCLINATION":87.9251,"RA_OF_ASC_NODE":356.099,"ARG_OF_PERICENTER":75.2669,"MEAN_ANOMALY":284.8655,"EPHEMERIS_TYPE":0,"CLASSIFICATION_TYPE":"U","NORAD_CAT_ID":50476,"ELEMENT_SET_NO":999,"REV_AT_EPOCH":20793,"BSTAR":-9.254979e-6,"MEAN_MOTION_DOT":9.0e-8,"MEAN_MOTION_DDOT":0},{"OBJECT_NAME":"ONEWEB-0397","OBJECT_ID":"2021-132J","EPOCH":"2026-03-05T05:32:53.584800","MEAN_MOTION":13.18685643,"ECCENTRICITY":0.00016242,"INCLINATION":87.9251,"RA_OF_ASC_NODE":356.096,"ARG_OF_PERICENTER":75.9403,"MEAN_ANOMALY":284.191,"EPHEMERIS_TYPE":0,"CLASSIFICATION_TYPE":"U","NORAD_CAT_ID":50477,"ELEMENT_SET_NO":999,"REV_AT_EPOCH":20791,"BSTAR":0.00038153442,"MEAN_MOTION_DOT":1.63e-6,"MEAN_MOTION_DDOT":0},{"OBJECT_NAME":"ONEWEB-0398","OBJECT_ID":"2021-132K","EPOCH":"2026-03-05T05:14:50.254080","MEAN_MOTION":13.11417488,"ECCENTRICITY":0.00022401,"INCLINATION":87.886,"RA_OF_ASC_NODE":41.7255,"ARG_OF_PERICENTER":81.9817,"MEAN_ANOMALY":278.1565,"EPHEMERIS_TYPE":0,"CLASSIFICATION_TYPE":"U","NORAD_CAT_ID":50478,"ELEMENT_SET_NO":999,"REV_AT_EPOCH":20198,"BSTAR":0.00089831428,"MEAN_MOTION_DOT":3.31e-6,"MEAN_MOTION_DDOT":0},{"OBJECT_NAME":"ONEWEB-0399","OBJECT_ID":"2021-132L","EPOCH":"2026-03-04T21:35:49.404768","MEAN_MOTION":13.1141775,"ECCENTRICITY":0.00015388,"INCLINATION":87.8861,"RA_OF_ASC_NODE":41.7984,"ARG_OF_PERICENTER":69.334,"MEAN_ANOMALY":290.7953,"EPHEMERIS_TYPE":0,"CLASSIFICATION_TYPE":"U","NORAD_CAT_ID":50479,"ELEMENT_SET_NO":999,"REV_AT_EPOCH":20193,"BSTAR":-0.00063656133,"MEAN_MOTION_DOT":-2.13e-6,"MEAN_MOTION_DDOT":0}]
